[
    {
        "Altitude(m)": 569581.6312802841,
        "Argument of Periapsis(deg)": 0.026491964442854003,
        "Eccentricity": 0.0,
        "Inclination(deg)": 53.0,
        "Latitude(deg)": -47.44426789768598,
        "Longitude(deg)": -132.89724831036298,
        "Mean Anomaly(deg)": 293.0936714703103,
        "RAAN(deg)": 24.960573474112067,
        "Satellite Name": "Starlink Shell 1 125",
        "Satellite Number": 125,
        "Semi-Major Axis(m)": 6931778.249405717,
        "Time(s)": 760
    },
    {
        "Altitude(m)": 569463.2144836948,
        "Argument of Periapsis(deg)": 0.02684054292236524,
        "Eccentricity": 0.0,
        "Inclination(deg)": 53.0,
        "Latitude(deg)": -47.15272464156848,
        "Longitude(deg)": -132.12530306073774,
        "Mean Anomaly(deg)": 293.7205026738671,
        "RAAN(deg)": 24.960054704034597,
        "Satellite Name": "Starlink Shell 1 125",
        "Satellite Number": 125,
        "Semi-Major Axis(m)": 6931778.249405717,
        "Time(s)": 770
    },
    {
        "Altitude(m)": 569342.2625515251,
        "Argument of Periapsis(deg)": 0.027189121401876473,
        "Eccentricity": 0.0,
        "Inclination(deg)": 53.0,
        "Latitude(deg)": -46.855453457078276,
        "Longitude(deg)": -131.36227066283647,
        "Mean Anomaly(deg)": 294.34733387742375,
        "RAAN(deg)": 24.95953593395712,
        "Satellite Name": "Starlink Shell 1 125",
        "Satellite Number": 125,
        "Semi-Major Axis(m)": 6931778.249405717,
        "Time(s)": 780
    },
    {
        "Altitude(m)": 569218.823309424,
        "Argument of Periapsis(deg)": 0.02753769988138771,
        "Eccentricity": 0.0,
        "Inclination(deg)": 53.0,
        "Latitude(deg)": -46.552574198045974,
        "Longitude(deg)": -130.60812885829267,
        "Mean Anomaly(deg)": 294.97416508098047,
        "RAAN(deg)": 24.95901716387965,
        "Satellite Name": "Starlink Shell 1 125",
        "Satellite Number": 125,
        "Semi-Major Axis(m)": 6931778.249405717,
        "Time(s)": 790
    },
    {
        "Altitude(m)": 569092.9455404448,
        "Argument of Periapsis(deg)": 0.02788627836089895,
        "Eccentricity": 0.0,
        "Inclination(deg)": 53.0,
        "Latitude(deg)": -46.24420568472366,
        "Longitude(deg)": -129.86284683364565,
        "Mean Anomaly(deg)": 295.6009962845372,
        "RAAN(deg)": 24.95849839380218,
        "Satellite Name": "Starlink Shell 1 125",
        "Satellite Number": 125,
        "Semi-Major Axis(m)": 6931778.249405717,
        "Time(s)": 800
    },
    {
        "Altitude(m)": 568964.6789636913,
        "Argument of Periapsis(deg)": 0.02823485684041019,
        "Eccentricity": 0.0,
        "Inclination(deg)": 53.0,
        "Latitude(deg)": -45.93046559261981,
        "Longitude(deg)": -129.12638525581266,
        "Mean Anomaly(deg)": 296.2278274880939,
        "RAAN(deg)": 24.957979623724704,
        "Satellite Name": "Starlink Shell 1 125",
        "Satellite Number": 125,
        "Semi-Major Axis(m)": 6931778.249405717,
        "Time(s)": 810
    },
    {
        "Altitude(m)": 568834.0742125212,
        "Argument of Periapsis(deg)": 0.028583435319921423,
        "Eccentricity": 0.0,
        "Inclination(deg)": 53.0,
        "Latitude(deg)": -45.611470351269375,
        "Longitude(deg)": -128.39869629962948,
        "Mean Anomaly(deg)": 296.8546586916506,
        "RAAN(deg)": 24.957460853647227,
        "Satellite Name": "Starlink Shell 1 125",
        "Satellite Number": 125,
        "Semi-Major Axis(m)": 6931778.249405717,
        "Time(s)": 820
    },
    {
        "Altitude(m)": 568701.1828123613,
        "Argument of Periapsis(deg)": 0.028932013799432665,
        "Eccentricity": 0.0,
        "Inclination(deg)": 53.0,
        "Latitude(deg)": -45.28733505260711,
        "Longitude(deg)": -127.67972517828606,
        "Mean Anomaly(deg)": 297.48148989520735,
        "RAAN(deg)": 24.956942083569757,
        "Satellite Name": "Starlink Shell 1 125",
        "Satellite Number": 125,
        "Semi-Major Axis(m)": 6931778.249405717,
        "Time(s)": 830
    },
    {
        "Altitude(m)": 568566.0571580854,
        "Argument of Periapsis(deg)": 0.029280592278943897,
        "Eccentricity": 0.0,
        "Inclination(deg)": 53.0,
        "Latitude(deg)": -44.95817336858931,
        "Longitude(deg)": -126.96941014912322,
        "Mean Anomaly(deg)": 298.108321098764,
        "RAAN(deg)": 24.956423313492287,
        "Satellite Name": "Starlink Shell 1 125",
        "Satellite Number": 125,
        "Semi-Major Axis(m)": 6931778.249405717,
        "Time(s)": 840
    },
    {
        "Altitude(m)": 568428.7504910178,
        "Argument of Periapsis(deg)": 0.029629170758455132,
        "Eccentricity": 0.0,
        "Inclination(deg)": 53.0,
        "Latitude(deg)": -44.62409747768308,
        "Longitude(deg)": -126.26768250613131,
        "Mean Anomaly(deg)": 298.7351523023207,
        "RAAN(deg)": 24.95590454341481,
        "Satellite Name": "Starlink Shell 1 125",
        "Satellite Number": 125,
        "Semi-Major Axis(m)": 6931778.249405717,
        "Time(s)": 850
    },
    {
        "Altitude(m)": 568289.316875546,
        "Argument of Periapsis(deg)": 0.02997774923796637,
        "Eccentricity": 0.0,
        "Inclination(deg)": 53.0,
        "Latitude(deg)": -44.285217999827104,
        "Longitude(deg)": -125.57446823883082,
        "Mean Anomaly(deg)": 299.3619835058775,
        "RAAN(deg)": 24.95538577333734,
        "Satellite Name": "Starlink Shell 1 125",
        "Satellite Number": 125,
        "Semi-Major Axis(m)": 6931778.249405717,
        "Time(s)": 860
    },
    {
        "Altitude(m)": 568147.8111753641,
        "Argument of Periapsis(deg)": 0.030326327717477602,
        "Eccentricity": 0.0,
        "Inclination(deg)": 53.0,
        "Latitude(deg)": -43.941643939461834,
        "Longitude(deg)": -124.88968715402751,
        "Mean Anomaly(deg)": 299.98881470943417,
        "RAAN(deg)": 24.954867003259864,
        "Satellite Name": "Starlink Shell 1 125",
        "Satellite Number": 125,
        "Semi-Major Axis(m)": 6931778.249405717,
        "Time(s)": 870
    },
    {
        "Altitude(m)": 568004.2890293194,
        "Argument of Periapsis(deg)": 0.030674906196988847,
        "Eccentricity": 0.0,
        "Inclination(deg)": 53.0,
        "Latitude(deg)": -43.593482636210034,
        "Longitude(deg)": -124.21325450249924,
        "Mean Anomaly(deg)": 300.61564591299094,
        "RAAN(deg)": 24.954348233182394,
        "Satellite Name": "Starlink Shell 1 125",
        "Satellite Number": 125,
        "Semi-Major Axis(m)": 6931778.249405717,
        "Time(s)": 880
    },
    {
        "Altitude(m)": 567858.8068269482,
        "Argument of Periapsis(deg)": 0.031023484676500086,
        "Eccentricity": 0.0,
        "Inclination(deg)": 53.0,
        "Latitude(deg)": -43.24083972279643,
        "Longitude(deg)": -123.54508090750697,
        "Mean Anomaly(deg)": 301.2424771165476,
        "RAAN(deg)": 24.953829463104924,
        "Satellite Name": "Starlink Shell 1 125",
        "Satellite Number": 125,
        "Semi-Major Axis(m)": 6931778.249405717,
        "Time(s)": 890
    },
    {
        "Altitude(m)": 567711.4216836283,
        "Argument of Periapsis(deg)": 0.03137206315601132,
        "Eccentricity": 0.0,
        "Inclination(deg)": 53.0,
        "Latitude(deg)": -42.88381908978765,
        "Longitude(deg)": -122.8850722756077,
        "Mean Anomaly(deg)": 301.8693083201044,
        "RAAN(deg)": 24.953310693027447,
        "Satellite Name": "Starlink Shell 1 125",
        "Satellite Number": 125,
        "Semi-Major Axis(m)": 6931778.249405717,
        "Time(s)": 900
    },
    {
        "Altitude(m)": 567562.1914154089,
        "Argument of Periapsis(deg)": 0.03172064163552255,
        "Eccentricity": 0.0,
        "Inclination(deg)": 53.0,
        "Latitude(deg)": -42.52252285673749,
        "Longitude(deg)": -122.23313120230841,
        "Mean Anomaly(deg)": 302.4961395236611,
        "RAAN(deg)": 24.952791922949974,
        "Satellite Name": "Starlink Shell 1 125",
        "Satellite Number": 125,
        "Semi-Major Axis(m)": 6931778.249405717,
        "Time(s)": 910
    },
    {
        "Altitude(m)": 567411.1745135181,
        "Argument of Periapsis(deg)": 0.0320692201150338,
        "Eccentricity": 0.0,
        "Inclination(deg)": 53.0,
        "Latitude(deg)": -42.15705134933314,
        "Longitude(deg)": -121.58915684661737,
        "Mean Anomaly(deg)": 303.12297072721776,
        "RAAN(deg)": 24.952273152872504,
        "Satellite Name": "Starlink Shell 1 125",
        "Satellite Number": 125,
        "Semi-Major Axis(m)": 6931778.249405717,
        "Time(s)": 920
    },
    {
        "Altitude(m)": 567258.4301185491,
        "Argument of Periapsis(deg)": 0.032417798594545036,
        "Eccentricity": 0.0,
        "Inclination(deg)": 53.0,
        "Latitude(deg)": -41.78750308214141,
        "Longitude(deg)": -120.9530447873079,
        "Mean Anomaly(deg)": 303.7498019307745,
        "RAAN(deg)": 24.95175438279503,
        "Satellite Name": "Starlink Shell 1 125",
        "Satellite Number": 125,
        "Semi-Major Axis(m)": 6931778.249405717,
        "Time(s)": 930
    },
    {
        "Altitude(m)": 567104.0179943473,
        "Argument of Periapsis(deg)": 0.03276637707405627,
        "Eccentricity": 0.0,
        "Inclination(deg)": 53.0,
        "Latitude(deg)": -41.41397474656267,
        "Longitude(deg)": -120.3246883738237,
        "Mean Anomaly(deg)": 304.3766331343312,
        "RAAN(deg)": 24.951235612717557,
        "Satellite Name": "Starlink Shell 1 125",
        "Satellite Number": 125,
        "Semi-Major Axis(m)": 6931778.249405717,
        "Time(s)": 940
    }
]